ONEWEB-0298             
1 49087U 21075N   23308.76281761  .00000139  00000+0  32608-3 0  9991
2 49087  87.9261 195.7736 0001778  81.3804 278.7529 13.17649283107808
ONEWEB-0299             
1 49088U 21075P   23308.91679057  .00000038  00000+0  64255-4 0  9990
2 49088  87.9198 195.7317 0001759  84.5883 275.5449 13.17651264107802
ONEWEB-0300             
1 49089U 21075Q   23308.92824855  .00000030  00000+0  48635-4 0  9996
2 49089  87.9040 180.6391 0001820  75.5860 284.5471 13.12443815109902
ONEWEB-0301             
1 49090U 21075R   23308.68471545 -.00000421  00000+0 -12045-2 0  9995
2 49090  87.9042 180.6893 0001809  66.2207 293.9111 13.12444435109232
ONEWEB-0302             
1 49091U 21075S   23308.90175952 -.00000406  00000+0 -11632-2 0  9998
2 49091  87.9042 180.6432 0001472  86.3027 273.8269 13.12441735109243
ONEWEB-0304             
1 49092U 21075T   23308.74170919  .00000081  00000+0  17539-3 0  9999
2 49092  87.9234 195.7757 0001840  79.9154 280.2185 13.17650552107759
ONEWEB-0305             
1 49093U 21075U   23308.95897840 -.00000073  00000+0 -22113-3 0  9999
2 49093  87.9246 195.7213 0001889  91.1836 268.9511 13.17650370107817
ONEWEB-0308             
1 49094U 21075V   23308.89445682 -.00031014  00000+0 -86299-1 0  9998
2 49094  87.9041 180.6462 0001722  75.7948 284.3372 13.12629920109257
